ONEWEB-0342             
1 49208U 21083Y   26113.04841052 -.00000008  00000+0 -52351-4 0  9993
2 49208  87.9139 285.4413 0001850  90.9493 269.1853 13.20769652229500
ONEWEB-0343             
1 49209U 21083Z   26113.06263810  .00000303  00000+0  73684-3 0  9993
2 49209  87.9210 346.4210 0001700  68.0751 292.0561 13.18688356222772
ONEWEB-0344             
1 49210U 21083AA  26113.04345854  .00000238  00000+0  61670-3 0  9991
2 49210  87.8959 331.2316 0001411  79.5313 280.5975 13.13469703223659
ONEWEB-0345             
1 49211U 21083AB  26113.11115742  .00000047  00000+0  93414-4 0  9991
2 49211  87.8972 331.1903 0001438  79.5157 280.6134 13.13471328223677
ONEWEB-0346             
1 49212U 21083AC  26112.90758354  .00000703  00000+0  17494-2 0  9991
2 49212  87.9195 346.4563 0001613 105.6666 254.4644 13.18691216222699
ONEWEB-0348             
1 49213U 21083AD  26112.96316869 -.00000029  00000+0 -10225-3 0  9998
2 49213  87.9140 285.4617 0001482 108.0817 252.0478 13.20769430229526
ONEWEB-0350             
1 49214U 21083AE  26113.04428788  .00000193  00000+0  49305-3 0  9994
2 49214  87.8980 331.2040 0001331  82.1189 278.0091 13.13469933223693
ONEWEB-0351             
1 49215U 21083AF  26112.88098904  .00000022  00000+0  21720-4 0  9992
2 49215  87.9144 285.4767 0001841  67.0150 293.1177 13.20772739229473
ONEWEB-0352             
1 49216U 21083AG  26113.10099197 -.00000232  00000+0 -67086-3 0  9993
2 49216  87.8969 331.2063 0001873  72.2049 287.9285 13.13471353223797
ONEWEB-0354             
1 49217U 21083AH  26112.90636855 -.00000025  00000+0 -92966-4 0  9995
2 49217  87.9139 285.4703 0001391 100.6076 259.5214 13.20773195229510
ONEWEB-0355             
1 49218U 21083AJ  26113.05374756  .00000395  00000+0  10479-2 0  9997
2 49218  87.8958 331.2223 0001613  77.1674 282.9635 13.13469907223667
ONEWEB-0357             
1 49219U 21083AK  26112.90319977 -.00000053  00000+0 -16326-3 0  9996
2 49219  87.9139 285.4655 0001829  88.4654 271.6688 13.20769075229511
ONEWEB-0332             
1 49279U 21090A   26112.88100198  .00000084  00000+0  19091-3 0  9994
2 49279  87.8924 300.7478 0001965  87.6213 272.5142 13.14502252220314
ONEWEB-0347             
1 49280U 21090B   26112.96950994  .00000373  00000+0  88644-3 0  9993
2 49280  87.9139 285.4610 0002025  94.7622 265.3742 13.20771172223756
ONEWEB-0349             
1 49281U 21090C   26113.00105290 -.00000070  00000+0 -20473-3 0  9993
2 49281  87.9141 285.4549 0001747  93.8493 266.2840 13.20772762222548
ONEWEB-0353             
1 49282U 21090D   26113.02531285  .00000068  00000+0  14888-3 0  9991
2 49282  87.8924 300.7128 0001919  86.2374 273.8975 13.14503029220335
