[{"OBJECT_NAME":"ONEWEB-0342","OBJECT_ID":"2021-083Y","EPOCH":"2026-04-23T01:09:42.668928","MEAN_MOTION":13.20769652,"ECCENTRICITY":0.000185,"INCLINATION":87.9139,"RA_OF_ASC_NODE":285.4413,"ARG_OF_PERICENTER":90.9493,"MEAN_ANOMALY":269.1853,"EPHEMERIS_TYPE":0,"CLASSIFICATION_TYPE":"U","NORAD_CAT_ID":49208,"ELEMENT_SET_NO":999,"REV_AT_EPOCH":22950,"BSTAR":-5.235100000000001e-05,"MEAN_MOTION_DOT":-8e-08,"MEAN_MOTION_DDOT":0.0},{"OBJECT_NAME":"ONEWEB-0343","OBJECT_ID":"2021-083Z","EPOCH":"2026-04-23T01:30:11.931840","MEAN_MOTION":13.18688356,"ECCENTRICITY":0.00017,"INCLINATION":87.921,"RA_OF_ASC_NODE":346.421,"ARG_OF_PERICENTER":68.0751,"MEAN_ANOMALY":292.0561,"EPHEMERIS_TYPE":0,"CLASSIFICATION_TYPE":"U","NORAD_CAT_ID":49209,"ELEMENT_SET_NO":999,"REV_AT_EPOCH":22277,"BSTAR":0.0007368400000000001,"MEAN_MOTION_DOT":3.03e-06,"MEAN_MOTION_DDOT":0.0},{"OBJECT_NAME":"ONEWEB-0344","OBJECT_ID":"2021-083AA","EPOCH":"2026-04-23T01:02:34.817856","MEAN_MOTION":13.13469703,"ECCENTRICITY":0.0001411,"INCLINATION":87.8959,"RA_OF_ASC_NODE":331.2316,"ARG_OF_PERICENTER":79.5313,"MEAN_ANOMALY":280.5975,"EPHEMERIS_TYPE":0,"CLASSIFICATION_TYPE":"U","NORAD_CAT_ID":49210,"ELEMENT_SET_NO":999,"REV_AT_EPOCH":22365,"BSTAR":0.0006167000000000001,"MEAN_MOTION_DOT":2.38e-06,"MEAN_MOTION_DDOT":0.0},{"OBJECT_NAME":"ONEWEB-0345","OBJECT_ID":"2021-083AB","EPOCH":"2026-04-23T02:40:04.001088","MEAN_MOTION":13.13471328,"ECCENTRICITY":0.0001438,"INCLINATION":87.8972,"RA_OF_ASC_NODE":331.1903,"ARG_OF_PERICENTER":79.5157,"MEAN_ANOMALY":280.6134,"EPHEMERIS_TYPE":0,"CLASSIFICATION_TYPE":"U","NORAD_CAT_ID":49211,"ELEMENT_SET_NO":999,"REV_AT_EPOCH":22367,"BSTAR":9.3414e-05,"MEAN_MOTION_DOT":4.7e-07,"MEAN_MOTION_DDOT":0.0},{"OBJECT_NAME":"ONEWEB-0346","OBJECT_ID":"2021-083AC","EPOCH":"2026-04-22T21:46:55.217856","MEAN_MOTION":13.18691216,"ECCENTRICITY":0.0001613,"INCLINATION":87.9195,"RA_OF_ASC_NODE":346.4563,"ARG_OF_PERICENTER":105.6666,"MEAN_ANOMALY":254.4644,"EPHEMERIS_TYPE":0,"CLASSIFICATION_TYPE":"U","NORAD_CAT_ID":49212,"ELEMENT_SET_NO":999,"REV_AT_EPOCH":22269,"BSTAR":0.0017494000000000001,"MEAN_MOTION_DOT":7.03e-06,"MEAN_MOTION_DDOT":0.0},{"OBJECT_NAME":"ONEWEB-0348","OBJECT_ID":"2021-083AD","EPOCH":"2026-04-22T23:06:57.774816","MEAN_MOTION":13.2076943,"ECCENTRICITY":0.0001482,"INCLINATION":87.914,"RA_OF_ASC_NODE":285.4617,"ARG_OF_PERICENTER":108.0817,"MEAN_ANOMALY":252.0478,"EPHEMERIS_TYPE":0,"CLASSIFICATION_TYPE":"U","NORAD_CAT_ID":49213,"ELEMENT_SET_NO":999,"REV_AT_EPOCH":22952,"BSTAR":-0.00010224999999999999,"MEAN_MOTION_DOT":-2.9e-07,"MEAN_MOTION_DDOT":0.0},{"OBJECT_NAME":"ONEWEB-0350","OBJECT_ID":"2021-083AE","EPOCH":"2026-04-23T01:03:46.472832","MEAN_MOTION":13.13469933,"ECCENTRICITY":0.0001331,"INCLINATION":87.898,"RA_OF_ASC_NODE":331.204,"ARG_OF_PERICENTER":82.1189,"MEAN_ANOMALY":278.0091,"EPHEMERIS_TYPE":0,"CLASSIFICATION_TYPE":"U","NORAD_CAT_ID":49214,"ELEMENT_SET_NO":999,"REV_AT_EPOCH":22369,"BSTAR":0.00049305,"MEAN_MOTION_DOT":1.93e-06,"MEAN_MOTION_DDOT":0.0},{"OBJECT_NAME":"ONEWEB-0351","OBJECT_ID":"2021-083AF","EPOCH":"2026-04-22T21:08:37.453056","MEAN_MOTION":13.20772739,"ECCENTRICITY":0.0001841,"INCLINATION":87.9144,"RA_OF_ASC_NODE":285.4767,"ARG_OF_PERICENTER":67.015,"MEAN_ANOMALY":293.1177,"EPHEMERIS_TYPE":0,"CLASSIFICATION_TYPE":"U","NORAD_CAT_ID":49215,"ELEMENT_SET_NO":999,"REV_AT_EPOCH":22947,"BSTAR":2.1720000000000002e-05,"MEAN_MOTION_DOT":2.2e-07,"MEAN_MOTION_DDOT":0.0},{"OBJECT_NAME":"ONEWEB-0352","OBJECT_ID":"2021-083AG","EPOCH":"2026-04-23T02:25:25.706208","MEAN_MOTION":13.13471353,"ECCENTRICITY":0.0001873,"INCLINATION":87.8969,"RA_OF_ASC_NODE":331.2063,"ARG_OF_PERICENTER":72.2049,"MEAN_ANOMALY":287.9285,"EPHEMERIS_TYPE":0,"CLASSIFICATION_TYPE":"U","NORAD_CAT_ID":49216,"ELEMENT_SET_NO":999,"REV_AT_EPOCH":22379,"BSTAR":-0.00067086,"MEAN_MOTION_DOT":-2.32e-06,"MEAN_MOTION_DDOT":0.0},{"OBJECT_NAME":"ONEWEB-0354","OBJECT_ID":"2021-083AH","EPOCH":"2026-04-22T21:45:10.242720","MEAN_MOTION":13.20773195,"ECCENTRICITY":0.0001391,"INCLINATION":87.9139,"RA_OF_ASC_NODE":285.4703,"ARG_OF_PERICENTER":100.6076,"MEAN_ANOMALY":259.5214,"EPHEMERIS_TYPE":0,"CLASSIFICATION_TYPE":"U","NORAD_CAT_ID":49217,"ELEMENT_SET_NO":999,"REV_AT_EPOCH":22951,"BSTAR":-9.2966e-05,"MEAN_MOTION_DOT":-2.5e-07,"MEAN_MOTION_DDOT":0.0},{"OBJECT_NAME":"ONEWEB-0355","OBJECT_ID":"2021-083AJ","EPOCH":"2026-04-23T01:17:23.789184","MEAN_MOTION":13.13469907,"ECCENTRICITY":0.0001613,"INCLINATION":87.8958,"RA_OF_ASC_NODE":331.2223,"ARG_OF_PERICENTER":77.1674,"MEAN_ANOMALY":282.9635,"EPHEMERIS_TYPE":0,"CLASSIFICATION_TYPE":"U","NORAD_CAT_ID":49218,"ELEMENT_SET_NO":999,"REV_AT_EPOCH":22366,"BSTAR":0.0010479,"MEAN_MOTION_DOT":3.95e-06,"MEAN_MOTION_DDOT":0.0},{"OBJECT_NAME":"ONEWEB-0357","OBJECT_ID":"2021-083AK","EPOCH":"2026-04-22T21:40:36.460128","MEAN_MOTION":13.20769075,"ECCENTRICITY":0.0001829,"INCLINATION":87.9139,"RA_OF_ASC_NODE":285.4655,"ARG_OF_PERICENTER":88.4654,"MEAN_ANOMALY":271.6688,"EPHEMERIS_TYPE":0,"CLASSIFICATION_TYPE":"U","NORAD_CAT_ID":49219,"ELEMENT_SET_NO":999,"REV_AT_EPOCH":22951,"BSTAR":-0.00016325999999999998,"MEAN_MOTION_DOT":-5.3e-07,"MEAN_MOTION_DDOT":0.0},{"OBJECT_NAME":"ONEWEB-0332","OBJECT_ID":"2021-090A","EPOCH":"2026-04-22T21:08:38.571072","MEAN_MOTION":13.14502252,"ECCENTRICITY":0.0001965,"INCLINATION":87.8924,"RA_OF_ASC_NODE":300.7478,"ARG_OF_PERICENTER":87.6213,"MEAN_ANOMALY":272.5142,"EPHEMERIS_TYPE":0,"CLASSIFICATION_TYPE":"U","NORAD_CAT_ID":49279,"ELEMENT_SET_NO":999,"REV_AT_EPOCH":22031,"BSTAR":0.00019091,"MEAN_MOTION_DOT":8.4e-07,"MEAN_MOTION_DDOT":0.0},{"OBJECT_NAME":"ONEWEB-0347","OBJECT_ID":"2021-090B","EPOCH":"2026-04-22T23:16:05.658816","MEAN_MOTION":13.20771172,"ECCENTRICITY":0.0002025,"INCLINATION":87.9139,"RA_OF_ASC_NODE":285.461,"ARG_OF_PERICENTER":94.7622,"MEAN_ANOMALY":265.3742,"EPHEMERIS_TYPE":0,"CLASSIFICATION_TYPE":"U","NORAD_CAT_ID":49280,"ELEMENT_SET_NO":999,"REV_AT_EPOCH":22375,"BSTAR":0.0008864400000000001,"MEAN_MOTION_DOT":3.73e-06,"MEAN_MOTION_DDOT":0.0},{"OBJECT_NAME":"ONEWEB-0349","OBJECT_ID":"2021-090C","EPOCH":"2026-04-23T00:01:30.970560","MEAN_MOTION":13.20772762,"ECCENTRICITY":0.0001747,"INCLINATION":87.9141,"RA_OF_ASC_NODE":285.4549,"ARG_OF_PERICENTER":93.8493,"MEAN_ANOMALY":266.284,"EPHEMERIS_TYPE":0,"CLASSIFICATION_TYPE":"U","NORAD_CAT_ID":49281,"ELEMENT_SET_NO":999,"REV_AT_EPOCH":22254,"BSTAR":-0.00020473,"MEAN_MOTION_DOT":-7e-07,"MEAN_MOTION_DDOT":0.0},{"OBJECT_NAME":"ONEWEB-0353","OBJECT_ID":"2021-090D","EPOCH":"2026-04-23T00:36:27.030240","MEAN_MOTION":13.14503029,"ECCENTRICITY":0.0001919,"INCLINATION":87.8924,"RA_OF_ASC_NODE":300.7128,"ARG_OF_PERICENTER":86.2374,"MEAN_ANOMALY":273.8975,"EPHEMERIS_TYPE":0,"CLASSIFICATION_TYPE":"U","NORAD_CAT_ID":49282,"ELEMENT_SET_NO":999,"REV_AT_EPOCH":22033,"BSTAR":0.00014888000000000002,"MEAN_MOTION_DOT":6.8e-07,"MEAN_MOTION_DDOT":0.0}]